NORAD_CAT_ID,OBJECT_NAME,OBJECT_TYPE,EPOCH,MEAN_MOTION,ECCENTRICITY,INCLINATION,RA_OF_ASC_NODE,ARG_OF_PERICENTER,MEAN_ANOMALY,BSTAR,MEAN_MOTION_DOT,MEAN_MOTION_DDOT,TLE_LINE0,TLE_LINE1,TLE_LINE2,SEMIMAJOR_AXIS,PERIOD,APOGEE,PERIGEE,DECAYED
52861.0,STARLINK-4112,PAYLOAD,2024-04-01 21:04:56,15.0883603,9.25e-05,53.2172,317.1303,86.9349,273.1749,6.2229e-05,7.03e-06,0.0,0 STARLINK-4112,1 52861U 22062AH  24092.87842617  .00000703  00000-0  62229-4 0  9999,2 52861  53.2172 317.1303 0000925  86.9349 273.1749 15.08836030 99710,6917.893,95.438,540.397,539.118,0.0
52861.0,STARLINK-4112,PAYLOAD,2024-04-02 08:12:37,15.0884423,9.87e-05,53.2173,315.0484,85.8663,274.2442,2.814e-07,-2.83e-06,0.0,0 STARLINK-4112,1 52861U 22062AH  24093.34210229 -.00000283  00000-0  28140-6 0  9990,2 52861  53.2173 315.0484 0000987  85.8663 274.2442 15.08844230 99299,6917.867,95.437,540.415,539.05,0.0
52861.0,STARLINK-4112,PAYLOAD,2024-04-02 20:55:43,15.08836554,0.0001013,53.2176,312.6702,85.7574,274.3534,4.8399e-06,-2.11e-06,0.0,0 STARLINK-4112,1 52861U 22062AH  24093.87202762 -.00000211  00000-0  48399-5 0  9999,2 52861  53.2176 312.6702 0001013  85.7574 274.3534 15.08836554 99371,6917.891,95.438,540.457,539.055,0.0
52861.0,STARLINK-4112,PAYLOAD,2024-04-03 08:03:24,15.08844502,9.84e-05,53.2173,310.5887,94.0865,266.024,-3.8779e-05,-9.05e-06,0.0,0 STARLINK-4112,1 52861U 22062AH  24094.33570320 -.00000905  00000-0 -38779-4 0  9990,2 52861  53.2173 310.5887 0000984  94.0865 266.0240 15.08844502 99937,6917.867,95.437,540.412,539.051,0.0
52861.0,STARLINK-4112,PAYLOAD,2024-04-03 14:24:57,15.08829069,0.0001074,53.2172,309.3995,90.3703,269.7412,0.00017334,2.471e-05,0.0,0 STARLINK-4112,1 52861U 22062AH  24094.60066841  .00002471  00000-0  17334-3 0  9999,2 52861  53.2172 309.3995 0001074  90.3703 269.7412 15.08829069 99485,6917.914,95.438,540.522,539.036,0.0
52861.0,STARLINK-4112,PAYLOAD,2024-04-03 20:46:30,15.08829291,0.0001033,53.2173,308.2099,90.0647,270.0464,0.00017648,2.521e-05,0.0,0 STARLINK-4112,1 52861U 22062AH  24094.86562988  .00002521  00000-0  17648-3 0  9994,2 52861  53.2173 308.2099 0001033  90.0647 270.0464 15.08829291100019,6917.913,95.438,540.493,539.064,0.0
52861.0,STARLINK-4112,PAYLOAD,2024-04-04 20:37:16,15.08841532,0.0001111,53.2172,303.7488,86.5739,273.538,0.00011638,1.565e-05,0.0,0 STARLINK-4112,1 52861U 22062AH  24095.85922262  .00001565  00000-0  11638-3 0  9999,2 52861  53.2172 303.7488 0001111  86.5739 273.5380 15.08841532 99675,6917.876,95.437,540.509,538.972,0.0
52861.0,STARLINK-4112,PAYLOAD,2024-04-04 23:48:02,15.08844188,0.0001101,53.2172,303.1539,85.4031,274.7087,9.5357e-05,1.23e-05,0.0,0 STARLINK-4112,1 52861U 22062AH  24095.99170136  .00001230  00000-0  95357-4 0  9999,2 52861  53.2172 303.1539 0001101  85.4031 274.7087 15.08844188100184,6917.868,95.437,540.494,538.971,0.0
52861.0,STARLINK-4112,PAYLOAD,2024-04-05 12:31:08,15.08843851,0.0001166,53.2178,300.7748,85.5297,274.5828,9.2445e-05,1.184e-05,0.0,0 STARLINK-4112,1 52861U 22062AH  24096.52162046  .00001184  00000-0  92445-4 0  9993,2 52861  53.2178 300.7748 0001166  85.5297 274.5828 15.08843851 99770,6917.869,95.437,540.54,538.927,0.0
52861.0,STARLINK-4112,PAYLOAD,2024-04-05 20:28:03,15.08842304,0.0001187,53.2177,299.2881,85.2398,274.873,7.2939e-05,8.73e-06,0.0,0 STARLINK-4112,1 52861U 22062AH  24096.85282266  .00000873  00000-0  72939-4 0  9996,2 52861  53.2177 299.2881 0001187  85.2398 274.8730 15.08842304 99824,6917.873,95.437,540.559,538.917,0.0
52861.0,STARLINK-4112,PAYLOAD,2024-04-06 13:57:18,15.08836681,0.0001225,53.2177,296.0177,92.73,267.3832,-7.5684e-06,-4.08e-06,0.0,0 STARLINK-4112,1 52861U 22062AH  24097.58146866 -.00000408  00000-0 -75684-5 0  9999,2 52861  53.2177 296.0177 0001225  92.7300 267.3832 15.08836681 99939,6917.891,95.438,540.603,538.908,0.0
52861.0,STARLINK-4112,PAYLOAD,2024-04-07 05:51:10,15.08843379,0.0001241,53.2179,293.0443,85.4242,274.6892,-2.9621e-05,-7.59e-06,0.0,0 STARLINK-4112,1 52861U 22062AH  24098.24386576 -.00000759  00000-0 -29621-4 0  9995,2 52861  53.2179 293.0443 0001241  85.4242 274.6892 15.08843379100039,6917.87,95.437,540.594,538.877,0.0
52861.0,STARLINK-4112,PAYLOAD,2024-04-07 21:45:02,15.08833229,0.0001395,53.2189,290.0727,89.2691,270.8461,-5.7294e-06,-3.79e-06,0.0,0 STARLINK-4112,1 52861U 22062AH  24098.90627428 -.00000379  00000-0 -57294-5 0  9998,2 52861  53.2189 290.0727 0001395  89.2691 270.8461 15.08833229100136,6917.901,95.438,540.731,538.801,0.0
52861.0,STARLINK-4112,PAYLOAD,2024-04-07 23:20:25,15.08836934,0.0001655,53.218,289.7737,90.5525,269.5657,-5.5814e-05,-1.176e-05,0.0,0 STARLINK-4112,1 52861U 22062AH  24098.97251282 -.00001176  00000-0 -55814-4 0  9997,2 52861  53.2180 289.7737 0001655  90.5525 269.5657 15.08836934100636,6917.89,95.438,540.9,538.61,0.0
52861.0,STARLINK-4112,PAYLOAD,2024-04-08 12:03:30,15.08835612,0.0001811,53.2224,287.3928,83.0462,277.0736,5.9207e-05,6.54e-06,0.0,0 STARLINK-4112,1 52861U 22062AH  24099.50243446  .00000654  00000-0  59207-4 0  9998,2 52861  53.2224 287.3928 0001811  83.0462 277.0736 15.08835612100221,6917.894,95.438,541.012,538.506,0.0
52861.0,STARLINK-4112,PAYLOAD,2024-04-09 05:32:44,15.08839774,0.0001395,53.2187,284.1229,84.5216,275.5935,0.00012962,1.776e-05,0.0,0 STARLINK-4112,1 52861U 22062AH  24100.23106847  .00001776  00000-0  12962-3 0  9996,2 52861  53.2187 284.1229 0001395  84.5216 275.5935 15.08839774100821,6917.881,95.438,540.711,538.781,0.0
52861.0,STARLINK-4112,PAYLOAD,2024-04-09 11:54:16,15.08839144,0.0001429,53.2171,282.9336,85.1888,274.9268,0.00011717,1.577e-05,0.0,0 STARLINK-4112,1 52861U 22062AH  24100.49602978  .00001577  00000-0  11717-3 0  9996,2 52861  53.2171 282.9336 0001429  85.1888 274.9268 15.08839144100372,6917.883,95.438,540.737,538.759,0.0
52861.0,STARLINK-4112,PAYLOAD,2024-04-09 21:26:35,15.08840904,0.0001373,53.2168,281.1493,85.9082,274.2067,8.1604e-05,1.011e-05,0.0,0 STARLINK-4112,1 52861U 22062AH  24100.89347017  .00001011  00000-0  81604-4 0  9996,2 52861  53.2168 281.1493 0001373  85.9082 274.2067 15.08840904100438,6917.878,95.437,540.692,538.793,0.0
52861.0,STARLINK-4112,PAYLOAD,2024-04-10 11:45:03,15.08841779,0.0001314,53.2157,278.4721,86.6544,273.4598,6.6008e-05,7.63e-06,0.0,0 STARLINK-4112,1 52861U 22062AH  24101.48962959  .00000763  00000-0  66008-4 0  9994,2 52861  53.2157 278.4721 0001314  86.6544 273.4598 15.08841779101011,6917.875,95.437,540.649,538.831,0.0
52861.0,STARLINK-4112,PAYLOAD,2024-04-10 18:06:36,15.08845497,0.0001309,53.2153,277.2829,85.4351,274.6791,6.6414e-05,7.69e-06,0.0,0 STARLINK-4112,1 52861U 22062AH  24101.75458633  .00000769  00000-0  66414-4 0  9990,2 52861  53.2153 277.2829 0001309  85.4351 274.6791 15.08845497100568,6917.864,95.437,540.634,538.823,0.0
52861.0,STARLINK-4112,PAYLOAD,2024-04-11 14:46:37,15.08834923,0.0001271,53.2171,273.4162,89.6881,270.4256,-1.263e-05,-4.89e-06,0.0,0 STARLINK-4112,1 52861U 22062AH  24102.61571461 -.00000489  00000-0 -12630-4 0  9993,2 52861  53.2171 273.4162 0001271  89.6881 270.4256 15.08834923100694,6917.896,95.438,540.64,538.882,0.0
52861.0,STARLINK-4112,PAYLOAD,2024-04-11 17:57:23,15.08833158,0.0001109,53.218,272.8211,92.3028,267.8091,5.9916e-05,6.66e-06,0.0,0 STARLINK-4112,1 52861U 22062AH  24102.74819381  .00000666  00000-0  59916-4 0  9996,2 52861  53.2180 272.8211 0001109  92.3028 267.8091 15.08833158101200,6917.901,95.438,540.533,538.999,0.0
52861.0,STARLINK-4112,PAYLOAD,2024-04-12 14:37:24,15.08841603,0.0001329,53.2182,268.9557,89.8096,270.3048,1.6759e-05,-2.1e-07,0.0,0 STARLINK-4112,1 52861U 22062AH  24103.60931066 -.00000021  00000-0  16759-4 0  9991,2 52861  53.2182 268.9557 0001329  89.8096 270.3048 15.08841603100845,6917.875,95.437,540.66,538.821,0.0
52861.0,STARLINK-4112,PAYLOAD,2024-04-13 09:42:02,15.08832347,0.0001303,53.2178,265.3878,87.721,272.3931,5.4931e-05,5.86e-06,0.0,0 STARLINK-4112,1 52861U 22062AH  24104.40419725  .00000586  00000-0  54931-4 0  9992,2 52861  53.2178 265.3878 0001303  87.7210 272.3931 15.08832347101450,6917.904,95.438,540.67,538.867,0.0
52861.0,STARLINK-4112,PAYLOAD,2024-04-13 14:28:12,15.08832458,0.0001273,53.2178,264.4957,87.0993,273.0145,5.6577e-05,6.12e-06,0.0,0 STARLINK-4112,1 52861U 22062AH  24104.60291814  .00000612  00000-0  56577-4 0  9999,2 52861  53.2178 264.4957 0001273  87.0993 273.0145 15.08832458100991,6917.903,95.438,540.649,538.888,0.0
52861.0,STARLINK-4112,PAYLOAD,2024-04-13 17:38:58,15.08837153,0.0001233,53.2178,263.9015,84.043,276.0703,4.7274e-05,4.65e-06,0.0,0 STARLINK-4112,1 52861U 22062AH  24104.73539614  .00000465  00000-0  47274-4 0  9996,2 52861  53.2178 263.9015 0001233  84.0430 276.0703 15.08837153101013,6917.889,95.438,540.607,538.901,0.0
52861.0,STARLINK-4112,PAYLOAD,2024-04-14 15:54:21,15.08841548,0.0001328,53.2179,259.7425,93.6932,266.4212,9.1617e-05,1.171e-05,0.0,0 STARLINK-4112,1 52861U 22062AH  24105.66275462  .00001171  00000-0  91617-4 0  9992,2 52861  53.2179 259.7425 0001328  93.6932 266.4212 15.08841548101640,6917.876,95.437,540.659,538.822,0.0
52861.0,STARLINK-4112,PAYLOAD,2024-04-15 14:09:46,15.08840873,0.0001372,53.2181,255.5754,99.4527,260.662,7.9835e-05,9.83e-06,0.0,0 STARLINK-4112,1 52861U 22062AH  24106.59011654  .00000983  00000-0  79835-4 0  9994,2 52861  53.2181 255.5754 0001372  99.4527 260.6620 15.08840873101295,6917.878,95.437,540.692,538.794,0.0
52861.0,STARLINK-4112,PAYLOAD,2024-04-16 09:14:23,15.08814376,0.000167,53.2178,252.0069,108.102,252.0154,0.00054263,8.352e-05,0.0,0 STARLINK-4112,1 52861U 22062AH  24107.38499430  .00008352  00000-0  54263-3 0  9999,2 52861  53.2178 252.0069 0001670 108.1020 252.0154 15.08814376101903,6917.959,95.439,540.979,538.668,0.0
52861.0,STARLINK-4112,PAYLOAD,2024-04-16 14:00:32,15.08857095,0.000133,53.2181,251.1153,94.0245,266.0899,-2.5761e-06,-3.29e-06,0.0,0 STARLINK-4112,1 52861U 22062AH  24107.58370909 -.00000329  00000-0 -25761-5 0  9991,2 52861  53.2181 251.1153 0001330  94.0245 266.0899 15.08857095101441,6917.828,95.436,540.613,538.773,0.0
